STARLINK-2171
1 17754C 21017AJ  21326.13418745  .00005561  00000-0  37254-3 0  3260
2 17754  53.0557  53.1369 0001044  75.2976 162.5977 15.06399230    12
